NORAD_CAT_ID,OBJECT_NAME,OBJECT_TYPE,EPOCH,MEAN_MOTION,ECCENTRICITY,INCLINATION,RA_OF_ASC_NODE,ARG_OF_PERICENTER,MEAN_ANOMALY,BSTAR,MEAN_MOTION_DOT,MEAN_MOTION_DDOT,TLE_LINE0,TLE_LINE1,TLE_LINE2,SEMIMAJOR_AXIS,PERIOD,APOGEE,PERIGEE,DECAYED
53530.0,STARLINK-4482,PAYLOAD,2023-03-29 08:45:03,15.08840319,0.0001128,53.2167,225.9338,93.093,267.0191,0.0002178,3.18e-05,0.0,0 STARLINK-4482,1 53530U 22101D   23088.36462153  .00003180  00000-0  21780-3 0  9996,2 53530  53.2167 225.9338 0001128  93.0930 267.0191 15.08840319 33674,6917.879,95.438,540.525,538.964,0.0
53530.0,STARLINK-4482,PAYLOAD,2023-03-29 16:41:58,15.08848908,0.0001308,53.217,224.4453,86.684,273.4301,0.00030497,4.57e-05,0.0,0 STARLINK-4482,1 53530U 22101D   23088.69581904  .00004570  00000-0  30497-3 0  9997,2 53530  53.2170 224.4453 0001308  86.6840 273.4301 15.08848908 33720,6917.853,95.437,540.623,538.813,0.0
53530.0,STARLINK-4482,PAYLOAD,2023-03-30 14:57:22,15.08848477,0.0001476,53.2171,220.2825,61.7774,298.3367,0.00031195,4.681e-05,0.0,0 STARLINK-4482,1 53530U 22101D   23089.62317984  .00004681  00000-0  31195-3 0  9995,2 53530  53.2171 220.2825 0001476  61.7774 298.3367 15.08848477 33868,6917.854,95.437,540.741,538.698,0.0
53530.0,STARLINK-4482,PAYLOAD,2023-03-31 11:37:23,15.08845865,0.0001439,53.2162,216.417,79.7595,280.3559,0.00023049,3.383e-05,0.0,0 STARLINK-4482,1 53530U 22101D   23090.48429774  .00003383  00000-0  23049-3 0  9999,2 53530  53.2162 216.4170 0001439  79.7595 280.3559 15.08845865 33993,6917.862,95.437,540.723,538.732,0.0
53530.0,STARLINK-4482,PAYLOAD,2023-04-01 11:28:11,15.08829898,0.000125,53.2176,211.9544,90.3669,269.7467,-9.2652e-05,-1.762e-05,0.0,0 STARLINK-4482,1 53530U 22101D   23091.47790691 -.00001762  00000-0 -92652-4 0  9996,2 53530  53.2176 211.9544 0001250  90.3669 269.7467 15.08829898 34140,6917.911,95.438,540.641,538.912,0.0
53530.0,STARLINK-4482,PAYLOAD,2023-04-01 13:03:34,15.08829813,0.0001327,53.217,211.6566,96.32,263.7943,-9.2235e-05,-1.755e-05,0.0,0 STARLINK-4482,1 53530U 22101D   23091.54414700 -.00001755  00000-0 -92235-4 0  9997,2 53530  53.2170 211.6566 0001327  96.3200 263.7943 15.08829813 34158,6917.912,95.438,540.695,538.859,0.0
53530.0,STARLINK-4482,PAYLOAD,2023-04-01 17:49:43,15.08832789,0.0001298,53.2169,210.763,102.0235,258.0903,-1.3713e-05,-5.06e-06,0.0,0 STARLINK-4482,1 53530U 22101D   23091.74286791 -.00000506  00000-0 -13713-4 0  9993,2 53530  53.2169 210.7630 0001298 102.0235 258.0903 15.08832789 34180,6917.902,95.438,540.665,538.869,0.0
53530.0,STARLINK-4482,PAYLOAD,2023-04-02 12:54:20,15.08851601,0.0001446,53.2166,207.1977,98.2214,261.8942,0.00042101,6.421e-05,0.0,0 STARLINK-4482,1 53530U 22101D   23092.53774283  .00006421  00000-0  42101-3 0  9991,2 53530  53.2166 207.1977 0001446  98.2214 261.8942 15.08851601 34302,6917.845,95.437,540.71,538.71,0.0
53530.0,STARLINK-4482,PAYLOAD,2023-04-02 14:29:43,15.0885628,0.0001313,53.2169,206.8991,107.3604,252.7532,0.0004522,6.919e-05,0.0,0 STARLINK-4482,1 53530U 22101D   23092.60397921  .00006919  00000-0  45220-3 0  9996,2 53530  53.2169 206.8991 0001313 107.3604 252.7532 15.08856280 34318,6917.831,95.437,540.604,538.787,0.0
53530.0,STARLINK-4482,PAYLOAD,2023-04-02 17:40:29,15.08860602,0.0001257,53.2164,206.3029,113.4189,246.6935,0.00052182,8.031e-05,0.0,0 STARLINK-4482,1 53530U 22101D   23092.73645629  .00008031  00000-0  52182-3 0  9993,2 53530  53.2164 206.3029 0001257 113.4189 246.6935 15.08860602 34337,6917.817,95.436,540.552,538.813,0.0
53530.0,STARLINK-4482,PAYLOAD,2023-04-03 11:09:45,15.08831344,0.0001535,53.2189,203.0366,100.9942,259.1223,-2.8113e-06,-3.33e-06,0.0,0 STARLINK-4482,1 53530U 22101D   23093.46511044 -.00000333  00000-0 -28113-5 0  9995,2 53530  53.2189 203.0366 0001535 100.9942 259.1223 15.08831344 34441,6917.907,95.438,540.834,538.71,0.0
53530.0,STARLINK-4482,PAYLOAD,2023-04-04 11:00:32,15.08848605,0.0001302,53.2174,198.5748,91.0322,269.0819,0.00013753,1.902e-05,0.0,0 STARLINK-4482,1 53530U 22101D   23094.45870440  .00001902  00000-0  13753-3 0  9996,2 53530  53.2174 198.5748 0001302  91.0322 269.0819 15.08848605 34596,6917.854,95.437,540.62,538.818,0.0
53530.0,STARLINK-4482,PAYLOAD,2023-04-05 14:02:05,15.08838422,0.0001182,53.2166,193.5192,80.4523,279.6603,0.00013969,1.936e-05,0.0,0 STARLINK-4482,1 53530U 22101D   23095.58479153  .00001936  00000-0  13969-3 0  9993,2 53530  53.2166 193.5192 0001182  80.4523 279.6603 15.08838422 34769,6917.885,95.438,540.568,538.933,0.0
53530.0,STARLINK-4482,PAYLOAD,2023-04-06 12:17:29,15.08843738,0.0001474,53.2181,189.3576,87.4096,272.7064,0.00011392,1.526e-05,0.0,0 STARLINK-4482,1 53530U 22101D   23096.51214979  .00001526  00000-0  11392-3 0  9993,2 53530  53.2181 189.3576 0001474  87.4096 272.7064 15.08843738 34908,6917.869,95.437,540.754,538.714,0.0
53530.0,STARLINK-4482,PAYLOAD,2023-04-07 05:46:44,15.08838108,0.0001661,53.217,186.0875,67.4437,292.6731,0.00013318,1.832e-05,0.0,0 STARLINK-4482,1 53530U 22101D   23097.24079365  .00001832  00000-0  13318-3 0  9992,2 53530  53.2170 186.0875 0001661  67.4437 292.6731 15.08838108 35017,6917.886,95.438,540.9,538.602,0.0
53530.0,STARLINK-4482,PAYLOAD,2023-04-07 12:08:17,15.08837986,0.000168,53.2173,184.898,72.1704,287.9471,0.00012516,1.704e-05,0.0,0 STARLINK-4482,1 53530U 22101D   23097.50575462  .00001704  00000-0  12516-3 0  9997,2 53530  53.2173 184.8980 0001680  72.1704 287.9471 15.08837986 35059,6917.887,95.438,540.914,538.589,0.0
53530.0,STARLINK-4482,PAYLOAD,2023-04-08 11:59:04,15.0883903,0.0001392,53.2172,180.4373,66.4002,293.7136,3.9584e-05,3.42e-06,0.0,0 STARLINK-4482,1 53530U 22101D   23098.49935420  .00000342  00000-0  39584-4 0  9992,2 53530  53.2172 180.4373 0001392  66.4002 293.7136 15.08839030 35205,6917.883,95.438,540.711,538.785,0.0
53530.0,STARLINK-4482,PAYLOAD,2023-04-08 15:09:49,15.08846368,0.0001361,53.2169,179.84,95.3418,264.7729,3.777e-05,3.13e-06,0.0,0 STARLINK-4482,1 53530U 22101D   23098.63182767  .00000313  00000-0  37770-4 0  9999,2 53530  53.2169 179.8400 0001361  95.3418 264.7729 15.08846368 35222,6917.861,95.437,540.667,538.784,0.0
53530.0,STARLINK-4482,PAYLOAD,2023-04-09 05:28:18,15.0883598,0.0001245,53.2164,177.1624,95.5511,264.5623,9.9519e-05,1.296e-05,0.0,0 STARLINK-4482,1 53530U 22101D   23099.22799180  .00001296  00000-0  99519-4 0  9998,2 53530  53.2164 177.1624 0001245  95.5511 264.5623 15.08835980 35312,6917.893,95.438,540.619,538.896,0.0
53530.0,STARLINK-4482,PAYLOAD,2023-04-09 10:14:27,15.08837054,0.000123,53.2173,176.2706,101.5673,258.5458,0.00011597,1.558e-05,0.0,0 STARLINK-4482,1 53530U 22101D   23099.42671018  .00001558  00000-0  11597-3 0  9999,2 53530  53.2173 176.2706 0001230 101.5673 258.5458 15.08837054 35340,6917.889,95.438,540.605,538.903,0.0
53530.0,STARLINK-4482,PAYLOAD,2023-04-09 11:49:50,15.08845057,0.0001305,53.2174,175.9729,106.1357,253.9779,2.161e-05,5.6e-07,0.0,0 STARLINK-4482,1 53530U 22101D   23099.49294737  .00000056  00000-0  21610-4 0  9995,2 53530  53.2174 175.9729 0001305 106.1357 253.9779 15.08845057 35353,6917.865,95.437,540.633,538.827,0.0
53530.0,STARLINK-4482,PAYLOAD,2023-04-10 05:19:05,15.0883635,0.0001336,53.2164,172.7024,102.6039,257.5102,5.883e-05,6.48e-06,0.0,0 STARLINK-4482,1 53530U 22101D   23100.22159270  .00000648  00000-0  58830-4 0  9992,2 53530  53.2164 172.7024 0001336 102.6039 257.5102 15.08836350 35465,6917.892,95.438,540.681,538.832,0.0
53530.0,STARLINK-4482,PAYLOAD,2023-04-10 08:29:51,15.08835735,0.0001332,53.2172,172.1078,106.2237,253.8902,0.00010276,1.348e-05,0.0,0 STARLINK-4482,1 53530U 22101D   23100.35407164  .00001348  00000-0  10276-3 0  9993,2 53530  53.2172 172.1078 0001332 106.2237 253.8902 15.08835735 35488,6917.893,95.438,540.68,538.837,0.0
53530.0,STARLINK-4482,PAYLOAD,2023-04-10 21:12:56,15.08844956,0.0001354,53.2173,169.7288,108.2859,251.8281,7.437e-05,8.96e-06,0.0,0 STARLINK-4482,1 53530U 22101D   23100.88398561  .00000896  00000-0  74370-4 0  9994,2 53530  53.2173 169.7288 0001354 108.2859 251.8281 15.08844956 35562,6917.865,95.437,540.667,538.794,0.0
53530.0,STARLINK-4482,PAYLOAD,2023-04-11 09:56:01,15.08843857,0.0001519,53.2188,167.3523,108.447,251.6687,4.6616e-05,4.54e-06,0.0,0 STARLINK-4482,1 53530U 22101D   23101.41390760  .00000454  00000-0  46616-4 0  9999,2 53530  53.2188 167.3523 0001519 108.4470 251.6687 15.08843857 35644,6917.869,95.437,540.784,538.683,0.0
53530.0,STARLINK-4482,PAYLOAD,2023-04-11 21:03:44,15.08835955,0.0001308,53.2179,165.2708,102.8926,257.2213,1.0261e-05,-1.25e-06,0.0,0 STARLINK-4482,1 53530U 22101D   23101.87759367 -.00000125  00000-0  10261-4 0  9994,2 53530  53.2179 165.2708 0001308 102.8926 257.2213 15.08835955 35711,6917.893,95.438,540.663,538.853,0.0
53530.0,STARLINK-4482,PAYLOAD,2023-04-12 05:00:40,15.08820395,0.0001399,53.2186,163.7841,104.3973,255.7175,8.3875e-05,1.047e-05,0.0,0 STARLINK-4482,1 53530U 22101D   23102.20880203  .00001047  00000-0  83875-4 0  9990,2 53530  53.2186 163.7841 0001399 104.3973 255.7175 15.08820395 35766,6917.94,95.439,540.773,538.837,0.0
53530.0,STARLINK-4482,PAYLOAD,2023-04-12 11:22:13,15.08822436,0.0001439,53.2187,162.5948,103.1886,256.9267,5.983e-05,6.64e-06,0.0,0 STARLINK-4482,1 53530U 22101D   23102.47376362  .00000664  00000-0  59830-4 0  9993,2 53530  53.2187 162.5948 0001439 103.1886 256.9267 15.08822436 35805,6917.934,95.439,540.795,538.804,0.0
53530.0,STARLINK-4482,PAYLOAD,2023-04-13 09:37:36,15.0884345,0.0001309,53.2184,158.4322,95.1281,264.986,7.662e-05,9.32e-06,0.0,0 STARLINK-4482,1 53530U 22101D   23103.40111176  .00000932  00000-0  76620-4 0  9991,2 53530  53.2184 158.4322 0001309  95.1281 264.9860 15.08843450 35949,6917.87,95.437,540.64,538.829,0.0
53530.0,STARLINK-4482,PAYLOAD,2023-04-13 11:12:59,15.08844163,0.0001275,53.2182,158.1347,94.6258,265.488,7.9883e-05,9.84e-06,0.0,0 STARLINK-4482,1 53530U 22101D   23103.46735109  .00000984  00000-0  79883-4 0  9996,2 53530  53.2182 158.1347 0001275  94.6258 265.4880 15.08844163 35952,6917.868,95.437,540.615,538.851,0.0
